93P/Lovas,e,12.2033,339.6337,74.8378,4.380032,0.1075197,0.61353520,225.7108,12/01.0/2022,2000,g  9.0,4.0
# From MPEC 2022-WQ9
94P/Russell,e,6.1878,70.8573,92.4262,3.508929,0.1499485,0.36532421,334.3420,12/01.0/2022,2000,g  9.0,6.0
# From MPC 75717
95P/Chiron,e,6.9192,209.3031,339.4798,13.71260,0.0194100,0.37620322,191.1524,12/01.0/2022,2000,g  6.5,2.0
# From MPEC 2022-ST7
96P/Machholz,e,57.5034,93.9547,14.7484,3.030533,0.1868210,0.96158273,348.5873,12/01.0/2022,2000,g 13.0,4.8
# From MPEC 2022-C56
97P/Metcalf-Brewington,e,17.9521,184.0767,229.9994,4.761327,0.0948663,0.46013484,27.3546,12/01.0/2022,2000,g  5.5,6.0
# From MPEC 2021-W31
98P/Takamizawa,e,10.5612,114.6798,157.8054,3.793747,0.1333833,0.56220191,92.7549,12/01.0/2022,2000,g  9.0,8.0
# From MPEC 2022-UE6
99P/Kowal,e,4.3399,28.1018,174.8651,6.102557,0.0653787,0.22886378,15.2335,12/01.0/2022,2000,g  4.5,6.0
# From MPEC 2022-QD9
100P/Hartley,e,25.5668,37.6877,181.9668,3.431518,0.1550511,0.41203305,17.3751,12/01.0/2022,2000,g  9.0,8.0
# From MPEC 2022-K19
101P/Chernykh,e,5.0510,116.2069,277.7618,5.808391,0.0704077,0.59637386,74.1330,12/01.0/2022,2000,g 10.0,4.8
# From MPEC 2022-C56
102P/Shoemaker,e,25.8824,339.3684,20.6360,3.816060,0.1322152,0.45713186,89.5596,12/01.0/2022,2000,g  6.5,8.0
# From MPEC 2018-HA5
103P/Hartley,e,13.6100,219.7498,181.2955,3.475032,0.1521479,0.69372625,311.9926,12/01.0/2022,2000,g  8.5,8.0
# From MPEC 2022-P82
104P/Kowal,e,5.7024,207.2069,227.2519,3.208301,0.1715108,0.66559273,55.4584,12/01.0/2022,2000,g 16.0,4.0
# From MPC109147
105P/Singer Brewster,e,9.1685,192.3960,46.4421,3.469288,0.1525259,0.40887066,240.4072,12/01.0/2022,2000,g 11.5,6.0
# From MPEC 2022-GA9
106P/Schuster,e,19.5374,48.8709,353.7127,3.765038,0.1349118,0.59393121,63.2934,12/01.0/2022,2000,g 14.0,4.8
# From MPEC 2015-M77
107P/Wilson-Harrington,e,2.7993,266.7742,95.4402,2.624449,0.2318179,0.63168327,22.7972,12/01.0/2022,2000,g  9.0,4.0
# From MPEC 2022-P82
108P/Ciffreo,e,11.4366,50.2781,354.4672,3.740454,0.1362440,0.55606912,60.8759,12/01.0/2022,2000,g  8.0,12.0
# From  105, 420
109P/Swift-Tuttle,e,113.8010,139.1833,153.0380,26.19055,0.0073534,0.96259816,80.4869,12/01.0/2022,2000,g  4.0,6.0
# From MPEC 2022-P82
110P/Hartley,e,11.7047,287.5237,167.4577,3.603720,0.1440713,0.31863032,58.8739,12/01.0/2022,2000,g  1.0,12.0
# From MPC 75718
111P/Helin-Roman-Crockett,e,4.2258,89.7537,1.0581,4.150470,0.1165623,0.10674857,62.1137,12/01.0/2022,2000,g  5.0,8.0
# From MPEC 2021-S45
112P/Urata-Niijima,e,24.2116,31.8335,21.4683,3.524591,0.1489502,0.59047213,152.8922,12/01.0/2022,2000,g 14.0,6.0
# From MPEC 2022-WQ9
113P/Spitaler,e,5.2898,306.6778,115.5305,3.691386,0.1389696,0.41978772,25.3653,12/01.0/2022,2000,g 13.5,4.0
# From MPEC 2022-K19
114P/Wiseman-Skiff,e,18.2861,271.0276,172.7437,3.543175,0.1477798,0.55531979,155.4129,12/01.0/2022,2000,g 11.5,6.0
# From MPEC 2021-UA9
115P/Maury,e,11.6772,176.0064,121.0027,4.272071,0.1116211,0.51807864,95.4057,12/01.0/2022,2000,g 10.5,6.0
# From MPEC 2022-QD9
116P/Wild,e,3.6034,20.9802,173.2762,3.489845,0.1511802,0.37046763,20.7308,12/01.0/2022,2000,g  2.5,10.0
# From MPEC 2022-WQ9
117P/Helin-Roman-Alu,e,8.7039,58.8399,222.9842,4.083096,0.1194592,0.25554053,17.4439,12/01.0/2022,2000,g  2.5,8.0
# From MPEC 2022-WQ9
118P/Shoemaker-Levy,e,10.0918,142.0966,314.8371,3.346269,0.1610137,0.45342460,1.0730,12/01.0/2022,2000,g 12.0,4.0
# From MPEC 2022-WQ9
119P/Parker-Hartley,e,7.3935,104.5711,322.0747,3.804477,0.1328194,0.38819969,14.7383,12/01.0/2022,2000,g  3.5,8.0
# From MPEC 2022-CN4
120P/Mueller,e,8.4898,358.6722,36.6570,3.965166,0.1248280,0.37486740,71.4643,12/01.0/2022,2000,g 12.0,4.0
# From MPEC 2022-WQ9
121P/Shoemaker-Holt,e,20.1652,94.1150,11.6025,4.583631,0.1004360,0.18613282,338.9714,12/01.0/2022,2000,g  6.5,8.0
# From MPC 75718
122P/de Vico,e,85.5192,79.6536,12.9911,17.62386,0.0133215,0.96231672,132.4800,12/01.0/2022,2000,g  7.5,5.2
# From MPEC 2021-F20
123P/West-Hartley,e,15.2856,45.9164,104.1000,3.879909,0.1289650,0.44449494,180.4177,12/01.0/2022,2000,g 12.2,4.0
# From MPEC 2022-K19
124P/Mrkos,e,31.6794,0.1143,185.2531,3.361384,0.1599289,0.49173451,152.6038,12/01.0/2022,2000,g 13.5,2.8
# From MPEC 2015-M77
125P/Spacewatch,e,9.9863,153.1494,87.1891,3.127745,0.1781792,0.51210833,277.6188,12/01.0/2022,2000,g  9.0,4.0
# From MPC 66205
126P/IRAS,e,45.8762,357.8721,356.5926,5.634121,0.0736995,0.69638248,344.0579,12/01.0/2022,2000,g  9.0,4.0
# From MPEC 2022-WQ9
127P/Holt-Olmstead,e,14.3012,13.6045,6.2732,3.452989,0.1536071,0.35964424,17.2915,12/01.0/2022,2000,g 11.0,6.0
# From MPC 89014
128P/Shoemaker-Holt,e,4.3701,214.3236,210.2676,4.488658,0.1036405,0.32177588,222.8264,12/01.0/2022,2000,g  8.5,4.0
# From MPEC 2022-WQ9
129P/Shoemaker-Levy,e,3.4423,184.8622,307.4482,4.288099,0.1109959,0.08482281,0.1031,12/01.0/2022,2000,g 11.0,4.0
# From MPEC 2022-ED3
130P/McNaught-Hughes,e,6.0628,70.1853,246.0969,3.383085,0.1583926,0.46118074,280.6835,12/01.0/2022,2000,g 10.0,6.0
# From MPC102101
131P/Mueller,e,7.3608,214.1469,179.0610,3.678855,0.1396803,0.34465925,196.2891,12/01.0/2022,2000,g 11.0,4.0
# From MPEC 2022-O08
132P/Helin-Roman-Alu,e,5.3827,173.9951,216.3852,3.887560,0.1285844,0.56471684,49.2252,12/01.0/2022,2000,g 11.0,6.0
# From MPC 94676
133P/Elst-Pizarro,e,1.3897,160.0988,131.9010,3.165530,0.1749985,0.15644277,267.9242,12/01.0/2022,2000,g 15.4,2.0
# From MPC 89012
134P/Kowal-Vavrova,e,4.3346,202.0506,18.8475,6.264352,0.0628622,0.58506355,196.3819,12/01.0/2022,2000,g 11.5,4.0
# From MPEC 2022-OB6
135P/Shoemaker-Levy,e,6.0634,213.0266,22.3243,3.799933,0.1330577,0.29468009,31.6207,12/01.0/2022,2000,g  7.0,8.0
# From MPEC 2022-K19
136P/Mueller,e,9.4244,137.4361,225.0775,4.189742,0.1149273,0.29339750,272.2373,12/01.0/2022,2000,g 11.0,4.0
# From MPEC 2022-K19
137P/Shoemaker-Levy,e,4.8574,232.9575,141.1416,4.521315,0.1025196,0.57386184,148.3731,12/01.0/2022,2000,g 11.0,4.0
# From MPEC 2016-U66
138P/Shoemaker-Levy,e,10.0905,309.2907,95.5790,3.620445,0.1430741,0.53129065,187.0128,12/01.0/2022,2000,g 15.0,6.0
# From MPEC 2020-HN5
139P/Vaisala-Oterma,e,2.3365,242.1403,165.7534,4.518936,0.1026006,0.24781490,186.2384,12/01.0/2022,2000,g  9.5,4.0
# From MPEC 2015-E14
140P/Bowell-Skiff,e,3.8458,343.2242,172.7276,6.415985,0.0606470,0.69356535,162.3293,12/01.0/2022,2000,g 11.5,6.0
# From MPEC 2022-K19
141P/Machholz,e,13.9532,241.7988,153.5943,3.057578,0.1843477,0.73602234,131.7168,12/01.0/2022,2000,g 12.0,12.0
# From MPEC 2022-SU8
141P-I/Machholz,e,13.9530,241.8035,153.5687,3.048228,0.1851966,0.73522964,132.4051,12/01.0/2022,2000,g 17.5,4.0
# From MPEC 2021-Y10
142P/Ge-Wang,e,12.2514,175.9320,174.0097,4.999878,0.0881587,0.49712986,50.0098,12/01.0/2022,2000,g  8.5,6.0
# From MPEC 2022-WQ9
143P/Kowal-Mrkos,e,4.7175,244.9746,320.3363,4.272979,0.1115855,0.41308238,186.4885,12/01.0/2022,2000,g 13.5,2.0
# From MPC104795
144P/Kushida,e,3.9302,242.9872,216.3560,3.828466,0.1315730,0.63509916,304.6536,12/01.0/2022,2000,g  8.5,8.0
# From MPC108598
145P/Shoemaker-Levy,e,11.2800,26.7966,10.2635,4.135916,0.1171781,0.54232239,224.3449,12/01.0/2022,2000,g 13.5,4.0
# From MPC100284
146P/Shoemaker-LINEAR,e,23.1179,53.3761,317.0196,4.029564,0.1218476,0.64748394,285.2548,12/01.0/2022,2000,g 15.0,4.0
# From MPC 75720
147P/Kushida-Muramatsu,e,2.3086,91.7868,348.2309,4.030901,0.1217870,0.21664272,314.9911,12/01.0/2022,2000,g 14.0,4.0
# From MPEC 2021-S45
148P/Anderson-LINEAR,e,3.6580,89.2049,8.0400,3.618623,0.1431822,0.54991628,24.3846,12/01.0/2022,2000,g 16.0,2.0
# From MPC 75720
149P/Mueller,e,34.3047,143.9797,30.9858,4.132736,0.1173134,0.32246351,184.8572,12/01.0/2022,2000,g  8.0,8.0
# From MPEC 2022-WQ9
150P/LONEOS,e,18.5261,272.1264,245.9129,3.875285,0.1291959,0.54888525,299.6219,12/01.0/2022,2000,g 13.5,4.0
# From MPEC 2022-K19
151P/Helin,e,4.7279,143.1511,216.1072,5.763002,0.0712411,0.57381142,185.6176,12/01.0/2022,2000,g 10.0,6.0
# From MPEC 2022-UY9
152P/Helin-Lawrence,e,9.8798,91.8551,164.0151,4.477157,0.1040401,0.30860996,33.3972,12/01.0/2022,2000,g 11.5,4.0
# From MPC 46101
153P/Ikeya-Zhang,e,28.1163,93.4379,34.7356,50.38494,0.0027558,0.98974483,0.0000,03/02.7566/2002,2000,g  9.0,4.0
# From MPEC 2022-K19
154P/Brewington,e,17.6323,343.0316,47.9037,4.798084,0.0937783,0.67610768,307.6289,12/01.0/2022,2000,g  2.5,12.0
# From MPEC 2021-F20
155P/Shoemaker,e,6.4008,97.1722,14.5558,6.569967,0.0585274,0.72647440,65.0787,12/01.0/2022,2000,g 13.8,4.0
# From MPEC 2022-GA9
156P/Russell-LINEAR,e,17.2691,35.3437,0.4696,3.462003,0.1530076,0.61512605,113.6658,12/01.0/2022,2000,g 15.5,2.0
# From MPEC 2022-VC5
157P/Tritton,e,12.4206,287.5472,155.0639,3.545562,0.1476306,0.55668077,12.1332,12/01.0/2022,2000,g 10.0,4.0
# From MPEC 2022-VC5
157P-B/Tritton,e,12.4275,287.0894,153.9372,3.100760,0.1805102,0.49966565,15.1625,12/01.0/2022,2000,g 15.7,4.0
# From MPEC 2022-VC5
158P/Kowal-LINEAR,e,7.5532,133.4540,190.1951,5.311357,0.0805185,0.09235091,32.0586,12/01.0/2022,2000,g  9.0,4.0
# From MPEC 2021-N06
159P/LONEOS,e,23.4812,54.9474,4.5705,5.852618,0.0696111,0.38247008,115.0589,12/01.0/2022,2000,g 10.0,4.0
# From MPEC 2022-K19
160P/LINEAR,e,15.6130,333.3610,12.7724,3.776562,0.1342948,0.52614859,146.9643,12/01.0/2022,2000,g 15.5,2.0
# From MPC 75721
161P/Hartley-IRAS,e,95.8022,1.5838,47.0223,7.717859,0.0459683,0.83539069,292.9647,12/01.0/2022,2000,g  8.5,6.0
# From MPEC 2022-M21
162P/SidingSpring,e,27.5637,30.8890,357.1818,3.092025,0.1812757,0.58315180,131.0555,12/01.0/2022,2000,g 12.0,4.0
# From MPEC 2021-S45
163P/NEAT,e,12.7146,102.0690,349.5566,3.765045,0.1349114,0.45248002,163.7378,12/01.0/2022,2000,g 14.5,4.0
# From MPEC 2021-F20
164P/Christensen,e,16.2679,88.2676,325.8638,3.654685,0.1410682,0.54086718,231.8411,12/01.0/2022,2000,g 11.0,4.0
# From MPC 75721
165P/LINEAR,e,15.8945,0.8692,125.8040,17.84320,0.0130766,0.61630289,107.6546,12/01.0/2022,2000,g 11.5,2.0
# From MPC 75722
166P/NEAT,e,15.3830,64.3584,321.6256,13.81502,0.0191945,0.38459568,143.7153,12/01.0/2022,2000,g  5.5,4.0
# From MPC 75722
